{
    "links": {
        "self": "http://www.neowsapp.com/rest/v1/neo/3745505?api_key=iIulBulltgU6a56xZRHN4H3l9WmuAYTsLGpBGhQ2"
    },
    "id": "3745505",
    "neo_reference_id": "3745505",
    "name": "(2016 EV27)",
    "designation": "2016 EV27",
    "nasa_jpl_url": "http://ssd.jpl.nasa.gov/sbdb.cgi?sstr=3745505",
    "absolute_magnitude_h": 23.4,
    "estimated_diameter": {
        "kilometers": {
            "estimated_diameter_min": 0.0555334912,
            "estimated_diameter_max": 0.1241766613
        },
        "meters": {
            "estimated_diameter_min": 55.5334911581,
            "estimated_diameter_max": 124.1766612574
        },
        "miles": {
            "estimated_diameter_min": 0.0345069009,
            "estimated_diameter_max": 0.0771597762
        },
        "feet": {
            "estimated_diameter_min": 182.1964991311,
            "estimated_diameter_max": 407.4037573197
        }
    },
    "is_potentially_hazardous_asteroid": false,
    "close_approach_data": [
        {
            "close_approach_date": "2000-04-27",
            "close_approach_date_full": "2000-Apr-27 23:26",
            "epoch_date_close_approach": 956877960000,
            "relative_velocity": {
                "kilometers_per_second": "6.9583854665",
                "kilometers_per_hour": "25050.1876795639",
                "miles_per_hour": "15565.2124501157"
            },
            "miss_distance": {
                "astronomical": "0.9461014694",
                "lunar": "368.0334715966",
                "kilometers": "141534764.626110178",
                "miles": "87945624.6458613364"
            },
            "orbiting_body": "Juptr"
        },
        {
            "close_approach_date": "2016-04-06",
            "close_approach_date_full": "2016-Apr-06 19:19",
            "epoch_date_close_approach": 1459970340000,
            "relative_velocity": {
                "kilometers_per_second": "12.8821371148",
                "kilometers_per_hour": "46375.69361323",
                "miles_per_hour": "28816.052512065"
            },
            "miss_distance": {
                "astronomical": "0.0385228341",
                "lunar": "14.9853824649",
                "kilometers": "5762933.927723367",
                "miles": "3580921.0931697846"
            },
            "orbiting_body": "Earth"
        },
        {
            "close_approach_date": "2035-12-15",
            "close_approach_date_full": "2035-Dec-15 13:08",
            "epoch_date_close_approach": 2081336880000,
            "relative_velocity": {
                "kilometers_per_second": "5.5886712482",
                "kilometers_per_hour": "20119.2164933949",
                "miles_per_hour": "12501.2987150209"
            },
            "miss_distance": {
                "astronomical": "0.6872184087",
                "lunar": "267.3279609843",
                "kilometers": "102806410.166309469",
                "miles": "63880941.0787459122"
            },
            "orbiting_body": "Juptr"
        },
        {
            "close_approach_date": "2038-07-21",
            "close_approach_date_full": "2038-Jul-21 06:28",
            "epoch_date_close_approach": 2163306480000,
            "relative_velocity": {
                "kilometers_per_second": "21.7490145141",
                "kilometers_per_hour": "78296.452250845",
                "miles_per_hour": "48650.3705666431"
            },
            "miss_distance": {
                "astronomical": "0.3832543366",
                "lunar": "149.0859369374",
                "kilometers": "57334032.423623042",
                "miles": "35625715.7616482996"
            },
            "orbiting_body": "Earth"
        }
    ],
    "orbital_data": {
        "orbit_id": "26",
        "orbit_determination_date": "2018-02-10 07:07:38",
        "first_observation_date": "2016-03-01",
        "last_observation_date": "2016-04-10",
        "data_arc_in_days": 40,
        "observations_used": 218,
        "orbit_uncertainty": "6",
        "minimum_orbit_intersection": ".0339868",
        "jupiter_tisserand_invariant": "3.017",
        "epoch_osculation": "2459000.5",
        "eccentricity": ".6464164287589762",
        "semi_major_axis": "2.692853429480977",
        "inclination": "8.873671043707491",
        "ascending_node_longitude": "188.8749692051811",
        "orbital_period": "1614.051918386735",
        "perihelion_distance": ".9521487324245224",
        "perihelion_argument": "44.46828605363006",
        "aphelion_distance": "4.433558126537433",
        "perihelion_time": "2459127.555342361951",
        "mean_anomaly": "331.6614300139614",
        "mean_motion": ".2230411524555074",
        "equinox": "J2000",
        "orbit_class": {
            "orbit_class_type": "APO",
            "orbit_class_description": "Near-Earth asteroid orbits which cross the Earth’s orbit similar to that of 1862 Apollo",
            "orbit_class_range": "a (semi-major axis) > 1.0 AU; q (perihelion) < 1.017 AU"
        }
    },
    "is_sentry_object": false
}